CCSDS_OMM_VERS = 2.0
CREATION_DATE  = 
ORIGINATOR     = 

OBJECT_NAME    = ZK-1A R/B
OBJECT_ID      = 2025-292K
CENTER_NAME    = EARTH
REF_FRAME      = TEME
TIME_SYSTEM    = UTC
MEAN_ELEMENT_THEORY = SGP/SGP4

EPOCH          = 2025-12-28T06:36:40.573440
MEAN_MOTION    = 15.59607812
ECCENTRICITY   = .02023513
INCLINATION    = 97.7196
RA_OF_ASC_NODE = 76.3502
ARG_OF_PERICENTER = 308.4919
MEAN_ANOMALY   = 49.8336

EPHEMERIS_TYPE = 0
CLASSIFICATION_TYPE = U
NORAD_CAT_ID   = 67002
ELEMENT_SET_NO = 999
REV_AT_EPOCH   = 281
BSTAR          = .7390299E-3
MEAN_MOTION_DOT = .16329E-2
MEAN_MOTION_DDOT = .9430464E-5

CCSDS_OMM_VERS = 2.0
CREATION_DATE  = 
ORIGINATOR     = 

OBJECT_NAME    = STARLINK-35660
OBJECT_ID      = 2025-293A
CENTER_NAME    = EARTH
REF_FRAME      = TEME
TIME_SYSTEM    = UTC
MEAN_ELEMENT_THEORY = SGP/SGP4

EPOCH          = 2025-12-28T06:00:02.000160
MEAN_MOTION    = 15.66902175
ECCENTRICITY   = .00036851
INCLINATION    = 69.9989
RA_OF_ASC_NODE = 279.1328
ARG_OF_PERICENTER = 271.0573
MEAN_ANOMALY   = 85.6467

EPHEMERIS_TYPE = 0
CLASSIFICATION_TYPE = U
NORAD_CAT_ID   = 67003
ELEMENT_SET_NO = 999
REV_AT_EPOCH   = 265
BSTAR          = -.17194506E-1
MEAN_MOTION_DOT = -.1621666E-1
MEAN_MOTION_DDOT = 0

CCSDS_OMM_VERS = 2.0
CREATION_DATE  = 
ORIGINATOR     = 

OBJECT_NAME    = STARLINK-35913
OBJECT_ID      = 2025-293B
CENTER_NAME    = EARTH
REF_FRAME      = TEME
TIME_SYSTEM    = UTC
MEAN_ELEMENT_THEORY = SGP/SGP4

EPOCH          = 2025-12-28T06:00:02.000160
MEAN_MOTION    = 15.66890716
ECCENTRICITY   = .00036332
INCLINATION    = 69.9989
RA_OF_ASC_NODE = 279.1301
ARG_OF_PERICENTER = 271.1795
MEAN_ANOMALY   = 87.5901

EPHEMERIS_TYPE = 0
CLASSIFICATION_TYPE = U
NORAD_CAT_ID   = 67004
ELEMENT_SET_NO = 999
REV_AT_EPOCH   = 265
BSTAR          = -.17187685E-1
MEAN_MOTION_DOT = -.1620383E-1
MEAN_MOTION_DDOT = 0

CCSDS_OMM_VERS = 2.0
CREATION_DATE  = 
ORIGINATOR     = 

OBJECT_NAME    = STARLINK-36148
OBJECT_ID      = 2025-293C
CENTER_NAME    = EARTH
REF_FRAME      = TEME
TIME_SYSTEM    = UTC
MEAN_ELEMENT_THEORY = SGP/SGP4

EPOCH          = 2025-12-28T06:00:02.000160
MEAN_MOTION    = 15.66875494
ECCENTRICITY   = .00036846
INCLINATION    = 69.9989
RA_OF_ASC_NODE = 279.1279
ARG_OF_PERICENTER = 271.7772
MEAN_ANOMALY   = 89.1100

EPHEMERIS_TYPE = 0
CLASSIFICATION_TYPE = U
NORAD_CAT_ID   = 67005
ELEMENT_SET_NO = 999
REV_AT_EPOCH   = 265
BSTAR          = -.17172972E-1
MEAN_MOTION_DOT = -.1618302E-1
MEAN_MOTION_DDOT = 0

CCSDS_OMM_VERS = 2.0
CREATION_DATE  = 
ORIGINATOR     = 

OBJECT_NAME    = STARLINK-36156
OBJECT_ID      = 2025-293D
CENTER_NAME    = EARTH
REF_FRAME      = TEME
TIME_SYSTEM    = UTC
MEAN_ELEMENT_THEORY = SGP/SGP4

EPOCH          = 2025-12-28T06:00:02.000160
MEAN_MOTION    = 15.66827049
ECCENTRICITY   = .00038168
INCLINATION    = 69.9990
RA_OF_ASC_NODE = 279.1222
ARG_OF_PERICENTER = 272.7413
MEAN_ANOMALY   = 92.7001

EPHEMERIS_TYPE = 0
CLASSIFICATION_TYPE = U
NORAD_CAT_ID   = 67006
ELEMENT_SET_NO = 999
REV_AT_EPOCH   = 266
BSTAR          = -.17228176E-1
MEAN_MOTION_DOT = -.1620185E-1
MEAN_MOTION_DDOT = 0

CCSDS_OMM_VERS = 2.0
CREATION_DATE  = 
ORIGINATOR     = 

OBJECT_NAME    = STARLINK-36123
OBJECT_ID      = 2025-293E
CENTER_NAME    = EARTH
REF_FRAME      = TEME
TIME_SYSTEM    = UTC
MEAN_ELEMENT_THEORY = SGP/SGP4

EPOCH          = 2025-12-28T06:00:02.000160
MEAN_MOTION    = 15.66845985
ECCENTRICITY   = .00037151
INCLINATION    = 69.9989
RA_OF_ASC_NODE = 279.1245
ARG_OF_PERICENTER = 271.4537
MEAN_ANOMALY   = 91.8115

EPHEMERIS_TYPE = 0
CLASSIFICATION_TYPE = U
NORAD_CAT_ID   = 67007
ELEMENT_SET_NO = 999
REV_AT_EPOCH   = 266
BSTAR          = -.17241798E-1
MEAN_MOTION_DOT = -.162235E-1
MEAN_MOTION_DDOT = 0

CCSDS_OMM_VERS = 2.0
CREATION_DATE  = 
ORIGINATOR     = 

OBJECT_NAME    = STARLINK-36163
OBJECT_ID      = 2025-293F
CENTER_NAME    = EARTH
REF_FRAME      = TEME
TIME_SYSTEM    = UTC
MEAN_ELEMENT_THEORY = SGP/SGP4

EPOCH          = 2025-12-28T06:00:02.000160
MEAN_MOTION    = 15.66784488
ECCENTRICITY   = .00036737
INCLINATION    = 69.9990
RA_OF_ASC_NODE = 279.1193
ARG_OF_PERICENTER = 272.0582
MEAN_ANOMALY   = 95.8605

EPHEMERIS_TYPE = 0
CLASSIFICATION_TYPE = U
NORAD_CAT_ID   = 67008
ELEMENT_SET_NO = 999
REV_AT_EPOCH   = 266
BSTAR          = -.17200739E-1
MEAN_MOTION_DOT = -.1615296E-1
MEAN_MOTION_DDOT = 0

CCSDS_OMM_VERS = 2.0
CREATION_DATE  = 
ORIGINATOR     = 

OBJECT_NAME    = STARLINK-36118
OBJECT_ID      = 2025-293G
CENTER_NAME    = EARTH
REF_FRAME      = TEME
TIME_SYSTEM    = UTC
MEAN_ELEMENT_THEORY = SGP/SGP4

EPOCH          = 2025-12-28T06:00:02.000160
MEAN_MOTION    = 15.66765673
ECCENTRICITY   = .00039665
INCLINATION    = 70.0000
RA_OF_ASC_NODE = 279.1163
ARG_OF_PERICENTER = 272.8052
MEAN_ANOMALY   = 97.3640

EPHEMERIS_TYPE = 0
CLASSIFICATION_TYPE = U
NORAD_CAT_ID   = 67009
ELEMENT_SET_NO = 999
REV_AT_EPOCH   = 259
BSTAR          = -.17287595E-1
MEAN_MOTION_DOT = -.1621666E-1
MEAN_MOTION_DDOT = 0

CCSDS_OMM_VERS = 2.0
CREATION_DATE  = 
ORIGINATOR     = 

OBJECT_NAME    = STARLINK-36189
OBJECT_ID      = 2025-293H
CENTER_NAME    = EARTH
REF_FRAME      = TEME
TIME_SYSTEM    = UTC
MEAN_ELEMENT_THEORY = SGP/SGP4

EPOCH          = 2025-12-28T06:00:02.000160
MEAN_MOTION    = 15.66735769
ECCENTRICITY   = .00036357
INCLINATION    = 69.9989
RA_OF_ASC_NODE = 279.1108
ARG_OF_PERICENTER = 271.0398
MEAN_ANOMALY   = 103.3984

EPHEMERIS_TYPE = 0
CLASSIFICATION_TYPE = U
NORAD_CAT_ID   = 67010
ELEMENT_SET_NO = 999
REV_AT_EPOCH   = 266
BSTAR          = -.17338341E-1
MEAN_MOTION_DOT = -.162387E-1
MEAN_MOTION_DDOT = 0

CCSDS_OMM_VERS = 2.0
CREATION_DATE  = 
ORIGINATOR     = 

OBJECT_NAME    = STARLINK-36167
OBJECT_ID      = 2025-293J
CENTER_NAME    = EARTH
REF_FRAME      = TEME
TIME_SYSTEM    = UTC
MEAN_ELEMENT_THEORY = SGP/SGP4

EPOCH          = 2025-12-28T06:00:02.000160
MEAN_MOTION    = 15.66760502
ECCENTRICITY   = .00037364
INCLINATION    = 69.9999
RA_OF_ASC_NODE = 279.1130
ARG_OF_PERICENTER = 272.3519
MEAN_ANOMALY   = 99.8229

EPHEMERIS_TYPE = 0
CLASSIFICATION_TYPE = U
NORAD_CAT_ID   = 67011
ELEMENT_SET_NO = 999
REV_AT_EPOCH   = 259
BSTAR          = -.17310475E-1
MEAN_MOTION_DOT = -.1623081E-1
MEAN_MOTION_DDOT = 0

CCSDS_OMM_VERS = 2.0
CREATION_DATE  = 
ORIGINATOR     = 

OBJECT_NAME    = STARLINK-36175
OBJECT_ID      = 2025-293K
CENTER_NAME    = EARTH
REF_FRAME      = TEME
TIME_SYSTEM    = UTC
MEAN_ELEMENT_THEORY = SGP/SGP4

EPOCH          = 2025-12-28T06:00:02.000160
MEAN_MOTION    = 15.66723507
ECCENTRICITY   = .00037073
INCLINATION    = 69.9992
RA_OF_ASC_NODE = 279.1085
ARG_OF_PERICENTER = 271.9975
MEAN_ANOMALY   = 104.5069

EPHEMERIS_TYPE = 0
CLASSIFICATION_TYPE = U
NORAD_CAT_ID   = 67012
ELEMENT_SET_NO = 999
REV_AT_EPOCH   = 260
BSTAR          = -.17299729E-1
MEAN_MOTION_DOT = -.1620001E-1
MEAN_MOTION_DDOT = 0

CCSDS_OMM_VERS = 2.0
CREATION_DATE  = 
ORIGINATOR     = 

OBJECT_NAME    = STARLINK-35856
OBJECT_ID      = 2025-293L
CENTER_NAME    = EARTH
REF_FRAME      = TEME
TIME_SYSTEM    = UTC
MEAN_ELEMENT_THEORY = SGP/SGP4

EPOCH          = 2025-12-28T06:00:02.000160
MEAN_MOTION    = 15.66702043
ECCENTRICITY   = .00037103
INCLINATION    = 70.0000
RA_OF_ASC_NODE = 279.1050
ARG_OF_PERICENTER = 273.6219
MEAN_ANOMALY   = 105.1314

EPHEMERIS_TYPE = 0
CLASSIFICATION_TYPE = U
NORAD_CAT_ID   = 67013
ELEMENT_SET_NO = 999
REV_AT_EPOCH   = 260
BSTAR          = -.17391823E-1
MEAN_MOTION_DOT = -.1626391E-1
MEAN_MOTION_DDOT = 0

