ZK-1A R/B               
1 67002U 25292K   25362.27546960  .00163290  94305-5  73903-3 0  9994
2 67002  97.7196  76.3502 0202351 308.4919  49.8336 15.59607812  2814
STARLINK-35660          
1 67003U 25293A   25362.25002315 -.01621666  00000+0 -17195-1 0  9996
2 67003  69.9989 279.1328 0003685 271.0573  85.6467 15.66902175  2658
STARLINK-35913          
1 67004U 25293B   25362.25002315 -.01620383  00000+0 -17188-1 0  9994
2 67004  69.9989 279.1301 0003633 271.1795  87.5901 15.66890716  2651
STARLINK-36148          
1 67005U 25293C   25362.25002315 -.01618302  00000+0 -17173-1 0  9997
2 67005  69.9989 279.1279 0003684 271.7772  89.1100 15.66875494  2658
STARLINK-36156          
1 67006U 25293D   25362.25002315 -.01620185  00000+0 -17228-1 0  9991
2 67006  69.9990 279.1222 0003816 272.7413  92.7001 15.66827049  2663
STARLINK-36123          
1 67007U 25293E   25362.25002315 -.01622350  00000+0 -17242-1 0  9994
2 67007  69.9989 279.1245 0003715 271.4537  91.8115 15.66845985  2663
STARLINK-36163          
1 67008U 25293F   25362.25002315 -.01615296  00000+0 -17201-1 0  9991
2 67008  69.9990 279.1193 0003673 272.0582  95.8605 15.66784488  2666
STARLINK-36118          
1 67009U 25293G   25362.25002315 -.01621666  00000+0 -17288-1 0  9995
2 67009  70.0000 279.1163 0003966 272.8052  97.3640 15.66765673  2597
STARLINK-36189          
1 67010U 25293H   25362.25002315 -.01623870  00000+0 -17338-1 0  9992
2 67010  69.9989 279.1108 0003635 271.0398 103.3984 15.66735769  2668
STARLINK-36167          
1 67011U 25293J   25362.25002315 -.01623081  00000+0 -17310-1 0  9997
2 67011  69.9999 279.1130 0003736 272.3519  99.8229 15.66760502  2592
STARLINK-36175          
1 67012U 25293K   25362.25002315 -.01620001  00000+0 -17300-1 0  9996
2 67012  69.9992 279.1085 0003707 271.9975 104.5069 15.66723507  2606
STARLINK-35856          
1 67013U 25293L   25362.25002315 -.01626391  00000+0 -17392-1 0  9996
2 67013  70.0000 279.1050 0003710 273.6219 105.1314 15.66702043  2608
